NORAD_CAT_ID,OBJECT_NAME,OBJECT_TYPE,EPOCH,MEAN_MOTION,ECCENTRICITY,INCLINATION,RA_OF_ASC_NODE,ARG_OF_PERICENTER,MEAN_ANOMALY,BSTAR,MEAN_MOTION_DOT,MEAN_MOTION_DDOT,TLE_LINE0,TLE_LINE1,TLE_LINE2,SEMIMAJOR_AXIS,PERIOD,APOGEE,PERIGEE,DECAYED
55306.0,STARLINK-5295,PAYLOAD,2023-04-20 07:00:17,15.69934468,0.0003192,69.9991,173.7339,269.1457,90.9373,2.6899e-05,3.024e-05,0.0,0 STARLINK-5295,1 55306U 23010AP  23110.29186380  .00003024  00000-0  26899-4 0  9996,2 55306  69.9991 173.7339 0003192 269.1457  90.9373 15.69934468 15075,6737.221,91.724,361.237,356.936,0.0
55306.0,STARLINK-5295,PAYLOAD,2023-04-20 13:07:19,15.69904879,0.0003503,69.9984,173.017,271.8678,88.2116,-1.2441e-05,-1.707e-05,0.0,0 STARLINK-5295,1 55306U 23010AP  23110.54675745 -.00001707  00000-0 -12441-4 0  9998,2 55306  69.9984 173.0170 0003503 271.8678  88.2116 15.69904879 14790,6737.306,91.725,361.531,356.811,0.0
55306.0,STARLINK-5295,PAYLOAD,2023-04-21 05:56:35,15.69917436,0.0003257,69.9974,171.0453,268.2183,91.864,4.3647e-06,3.12e-06,0.0,0 STARLINK-5295,1 55306U 23010AP  23111.24762974  .00000312  00000-0  43647-5 0  9999,2 55306  69.9974 171.0453 0003257 268.2183  91.8640 15.69917436 14906,6737.27,91.725,361.33,356.941,0.0
55306.0,STARLINK-5295,PAYLOAD,2023-04-21 10:31:50,15.69920534,0.0003335,69.9983,170.5099,269.6693,90.412,1.7792e-05,1.927e-05,0.0,0 STARLINK-5295,1 55306U 23010AP  23111.43877652  .00001927  00000-0  17792-4 0  9994,2 55306  69.9983 170.5099 0003335 269.6693  90.4120 15.69920534 15254,6737.261,91.724,361.373,356.879,0.0
55306.0,STARLINK-5295,PAYLOAD,2023-04-21 21:14:06,15.69914762,0.0003463,69.997,169.2552,275.3106,84.7694,3.3115e-05,3.769e-05,0.0,0 STARLINK-5295,1 55306U 23010AP  23111.88479486  .00003769  00000-0  33115-4 0  9999,2 55306  69.9970 169.2552 0003463 275.3106  84.7694 15.69914762 15320,6737.278,91.725,361.476,356.81,0.0
55306.0,STARLINK-5295,PAYLOAD,2023-04-22 14:03:21,15.69935895,0.0003863,69.9971,167.2848,277.7442,82.3315,-7.6364e-06,-1.132e-05,0.0,0 STARLINK-5295,1 55306U 23010AP  23112.58566925 -.00001132  00000-0 -76364-5 0  9990,2 55306  69.9971 167.2848 0003863 277.7442  82.3315 15.69935895 15436,6737.217,91.723,361.685,356.48,0.0
55306.0,STARLINK-5295,PAYLOAD,2023-04-23 12:59:40,15.69907441,0.0003205,69.9967,164.5965,270.2678,89.815,9.4342e-06,9.21e-06,0.0,0 STARLINK-5295,1 55306U 23010AP  23113.54144093  .00000921  00000-0  94342-5 0  9994,2 55306  69.9967 164.5965 0003205 270.2678  89.8150 15.69907441 15266,6737.299,91.725,361.323,357.005,0.0
55306.0,STARLINK-5295,PAYLOAD,2023-04-24 02:45:24,15.69943758,0.000376,69.9973,162.9857,268.0538,92.0227,2.5301e-05,2.833e-05,0.0,0 STARLINK-5295,1 55306U 23010AP  23114.11486117  .00002833  00000-0  25301-4 0  9996,2 55306  69.9973 162.9857 0003760 268.0538  92.0227 15.69943758 15678,6737.195,91.723,361.593,356.527,0.0
55306.0,STARLINK-5295,PAYLOAD,2023-04-25 12:24:02,15.6988424,0.0003237,69.9978,159.0442,257.3077,102.7757,-3.9184e-05,-4.913e-05,0.0,0 STARLINK-5295,1 55306U 23010AP  23115.51669102 -.00004913  00000-0 -39184-4 0  9995,2 55306  69.9978 159.0442 0003237 257.3077 102.7757 15.69884240 15574,6737.365,91.727,361.411,357.049,0.0
55306.0,STARLINK-5295,PAYLOAD,2023-04-26 11:20:14,15.69937391,0.0002863,69.9982,156.3578,237.8374,122.2544,5.173e-05,6.015e-05,0.0,0 STARLINK-5295,1 55306U 23010AP  23116.47239163  .00006015  00000-0  51730-4 0  9995,2 55306  69.9982 156.3578 0002863 237.8374 122.2544 15.69937391 16046,6737.213,91.723,361.007,357.149,0.0
55306.0,STARLINK-5295,PAYLOAD,2023-04-27 04:09:44,15.69781454,0.0002622,69.9975,154.3871,243.8128,116.2798,-7.308e-05,-8.937e-05,0.0,0 STARLINK-5295,1 55306U 23010AP  23117.17343479 -.00008937  00000-0 -73080-4 0  9998,2 55306  69.9975 154.3871 0002622 243.8128 116.2798 15.69781454 15836,6737.659,91.733,361.291,357.758,0.0
55306.0,STARLINK-5295,PAYLOAD,2023-04-27 13:20:35,15.69567337,0.0002977,69.9959,153.31,245.3608,114.7277,-0.00030015,-0.00035621,0.0,0 STARLINK-5295,1 55306U 23010AP  23117.55596125 -.00035621  00000-0 -30015-3 0  9998,2 55306  69.9959 153.3100 0002977 245.3608 114.7277 15.69567337 16215,6738.272,91.745,362.143,358.131,0.0
55306.0,STARLINK-5295,PAYLOAD,2023-04-28 12:16:19,15.69910629,0.0003474,69.9979,150.6246,259.5417,100.5387,2.4831e-05,2.772e-05,0.0,0 STARLINK-5295,1 55306U 23010AP  23118.51133570  .00002772  00000-0  24831-4 0  9995,2 55306  69.9979 150.6246 0003474 259.5417 100.5387 15.69910629 16048,6737.29,91.725,361.495,356.814,0.0
55306.0,STARLINK-5295,PAYLOAD,2023-04-29 05:05:35,15.6992935,0.0003347,69.9973,148.6544,253.4241,106.6587,9.5155e-06,9.32e-06,0.0,0 STARLINK-5295,1 55306U 23010AP  23119.21221356  .00000932  00000-0  95155-5 0  9997,2 55306  69.9973 148.6544 0003347 253.4241 106.6587 15.69929350 16159,6737.236,91.724,361.356,356.846,0.0
55306.0,STARLINK-5295,PAYLOAD,2023-04-29 11:14:05,15.68681027,0.0002932,69.9973,147.941,127.6334,232.5127,-0.001427,-0.00160142,0.0,0 STARLINK-5295,1 55306U 23010AP  23119.46811830 -.00160142  00000-0 -14270-2 0  9994,2 55306  69.9973 147.9410 0002932 127.6334 232.5127 15.68681027 16511,6740.81,91.797,364.651,360.698,0.0
55306.0,STARLINK-5295,PAYLOAD,2023-04-29 22:00:00,15.69879887,0.0003552,69.9998,146.6729,259.2779,121.0412,0.00065123,0.00078688,0.0,0 STARLINK-5295,1 55306U 23010AP  23119.91667824  .00078688  00000-0  65123-3 0  9991,2 55306  69.9998 146.6729 0003552 259.2779 121.0412 15.69879887 16266,6737.378,91.727,361.636,356.85,0.0
55306.0,STARLINK-5295,PAYLOAD,2023-04-30 00:58:27,15.69904895,0.0003833,69.9954,146.3247,274.9685,85.1073,1.7023e-05,1.833e-05,0.0,0 STARLINK-5295,1 55306U 23010AP  23120.04059550  .00001833  00000-0  17023-4 0  9993,2 55306  69.9954 146.3247 0003833 274.9685  85.1073 15.69904895 16285,6737.306,91.725,361.754,356.589,0.0
55306.0,STARLINK-5295,PAYLOAD,2023-04-30 11:40:39,15.69968364,0.0003394,69.9958,145.0715,256.6997,103.3821,-0.00014282,-0.00017382,0.0,0 STARLINK-5295,1 55306U 23010AP  23120.48656353 -.00017382  00000-0 -14282-3 0  9996,2 55306  69.9958 145.0715 0003394 256.6997 103.3821 15.69968364 16353,6737.125,91.722,361.276,356.703,0.0
55306.0,STARLINK-5295,PAYLOAD,2023-04-30 14:44:54,15.69340745,0.000508,69.9941,144.7159,236.4376,123.6335,-0.00073984,-0.0008621,0.0,0 STARLINK-5295,1 55306U 23010AP  23120.61451454 -.00086210  00000-0 -73984-3 0  9996,2 55306  69.9941 144.7159 0005080 236.4376 123.6335 15.69340745 16378,6738.921,91.758,364.209,357.362,0.0
55306.0,STARLINK-5295,PAYLOAD,2023-05-01 19:47:24,15.69955946,0.0003375,69.9976,141.309,262.8378,97.2434,-2.6073e-05,-3.351e-05,0.0,0 STARLINK-5295,1 55306U 23010AP  23121.82458666 -.00003351  00000-0 -26073-4 0  9995,2 55306  69.9976 141.3090 0003375 262.8378  97.2434 15.69955946 16565,6737.16,91.722,361.299,356.751,0.0
55306.0,STARLINK-5295,PAYLOAD,2023-05-02 04:57:56,15.69918264,0.0003277,69.9968,140.2339,273.9462,86.1359,2.0744e-05,2.282e-05,0.0,0 STARLINK-5295,1 55306U 23010AP  23122.20690360  .00002282  00000-0  20744-4 0  9996,2 55306  69.9968 140.2339 0003277 273.9462  86.1359 15.69918264 16620,6737.268,91.725,361.341,356.925,0.0
55306.0,STARLINK-5295,PAYLOAD,2023-05-02 12:36:42,15.69920796,0.0003065,69.9961,139.337,268.2956,91.7889,7.37e-06,6.73e-06,0.0,0 STARLINK-5295,1 55306U 23010AP  23122.52548877  .00000673  00000-0  73700-5 0  9999,2 55306  69.9961 139.3370 0003065 268.2956  91.7889 15.69920796 16990,6737.261,91.724,361.191,357.061,0.0
55306.0,STARLINK-5295,PAYLOAD,2023-05-03 10:01:13,15.69926581,0.000331,69.9967,136.831,261.6667,98.4153,1.4739e-06,-3.6e-07,0.0,0 STARLINK-5295,1 55306U 23010AP  23123.41752187 -.00000036  00000-0  14739-5 0  9990,2 55306  69.9967 136.8310 0003310 261.6667  98.4153 15.69926581 16818,6737.244,91.724,361.339,356.879,0.0
55306.0,STARLINK-5295,PAYLOAD,2023-05-04 14:00:01,15.69936557,0.0003382,69.9988,133.5518,273.9759,193.0678,-0.00020713,-0.00025057,0.0,0 STARLINK-5295,1 55306U 23010AP  23124.58335648 -.00025057  00000-0 -20713-3 0  9996,2 55306  69.9988 133.5518 0003382 273.9759 193.0678 15.69936557  1308,6737.216,91.723,361.359,356.802,0.0
55306.0,STARLINK-5295,PAYLOAD,2023-05-04 16:00:01,15.69952388,0.0003357,69.9988,133.3174,271.0732,306.8201,-0.00070125,-0.00083795,0.0,0 STARLINK-5295,1 55306U 23010AP  23124.66668981 -.00083795  00000-0 -70125-3 0  9999,2 55306  69.9988 133.3174 0003357 271.0732 306.8201 15.69952388 17017,6737.17,91.723,361.297,356.774,0.0
55306.0,STARLINK-5295,PAYLOAD,2023-05-05 09:27:07,15.68586723,0.0004975,69.9969,131.281,165.9071,194.2264,-0.001541,-0.00172109,0.0,0 STARLINK-5295,1 55306U 23010AP  23125.39383794 -.00172109  00000-0 -15410-2 0  9999,2 55306  69.9969 131.2810 0004975 165.9071 194.2264 15.68586723 17129,6741.08,91.802,366.299,359.591,0.0
55306.0,STARLINK-5295,PAYLOAD,2023-05-05 16:00:01,15.69960277,0.0003364,69.9991,130.5056,270.5721,197.3152,-0.00072936,-0.00087139,0.0,0 STARLINK-5295,1 55306U 23010AP  23125.66668981 -.00087139  00000-0 -72936-3 0  9998,2 55306  69.9991 130.5056 0003364 270.5721 197.3152 15.69960277 17169,6737.148,91.722,361.279,356.746,0.0
55306.0,STARLINK-5295,PAYLOAD,2023-05-05 22:00:00,15.69883344,0.0003387,69.9994,129.803,265.1638,175.1763,0.00077607,0.00093996,0.0,0 STARLINK-5295,1 55306U 23010AP  23125.91667824  .00093996  00000-0  77607-3 0  9997,2 55306  69.9994 129.8030 0003387 265.1638 175.1763 15.69883344  1307,6737.368,91.727,361.515,356.951,0.0
55306.0,STARLINK-5295,PAYLOAD,2023-05-06 06:50:03,15.69935231,0.0003414,69.9972,128.7702,262.9162,97.1646,8.3317e-06,7.89e-06,0.0,0 STARLINK-5295,1 55306U 23010AP  23126.28476850  .00000789  00000-0  83317-5 0  9990,2 55306  69.9972 128.7702 0003414 262.9162  97.1646 15.69935231 17263,6737.219,91.724,361.384,356.784,0.0
55306.0,STARLINK-5295,PAYLOAD,2023-05-06 09:53:34,15.69935657,0.0003414,69.9972,128.4119,262.9854,97.0954,9.1762e-06,8.91e-06,0.0,0 STARLINK-5295,1 55306U 23010AP  23126.41220111  .00000891  00000-0  91762-5 0  9999,2 55306  69.9972 128.4119 0003414 262.9854  97.0954 15.69935657 17601,6737.218,91.724,361.383,356.783,0.0
